ELEKTRO-L
1 37344U 11001A   24171.92688270  .00000104  00000-0  00000+0 0  9995
2 37344   8.0185  61.5519 0006636  22.3658 174.5396  1.00213143 49170
ELEKTRO-L 2
1 41105U 15074A   24171.58541873 -.00000097  00000-0  00000-0 0  9991
2 41105   4.8475  79.4432 0000486 138.0762 247.0720  1.00271620 31213
ELEKTRO-L 3
1 44903U 19095A   24172.17590362 -.00000075  00000-0  00000+0 0  9995
2 44903   0.0617 179.2416 0000709 270.7298 318.2987  1.00271651 16409
ELEKTRO-L 4
1 55506U 23016A   24171.79345136 -.00000035  00000-0  00000-0 0  9995
2 55506   0.0659 248.3606 0000873 337.6690 133.9724  1.00273357  5028
